{
  "type": "FeatureCollection",
  "name": "OpenStreetMap building footprints",
  "metadata": {
    "source": "OpenStreetMap contributors via Overpass API",
    "bbox_wgs84": [
      16.46781921386718,
      48.248911813734296,
      16.47605895996093,
      48.2543983320065
    ]
  },
  "features": [
    {
      "type": "Feature",
      "id": "way/23046551",
      "properties": {
        "addr:city": "Wien",
        "addr:country": "AT",
        "addr:housenumber": "1a",
        "addr:postcode": "1220",
        "addr:street": "Sverigestraße",
        "branch": "Wien Nord",
        "brand": "IKEA",
        "brand:wikidata": "Q54078",
        "building": "retail",
        "building:levels": "2",
        "check_date:opening_hours": "2025-08-01",
        "name": "IKEA",
        "opening_hours": "Mo-Fr 09:00-20:00; Sa 09:00-18:00",
        "operator": "IKEA",
        "phone": "+43 800 081100",
        "shop": "furniture",
        "toilets:wheelchair": "yes",
        "website": "https://www.ikea.com/at/de/stores/wien-nord/",
        "wheelchair": "yes",
        "osm_id": "way/23046551"
      },
      "geometry": {
        "type": "Polygon",
        "coordinates": [
          [
            [
              16.4703578,
              48.2533991
            ],
            [
              16.470378,
              48.2534358
            ],
            [
              16.4702816,
              48.2534594
            ],
            [
              16.4713446,
              48.2553862
            ],
            [
              16.4718288,
              48.2552678
            ],
            [
              16.4721067,
              48.2551998
            ],
            [
              16.4720325,
              48.2550654
            ],
            [
              16.4720974,
              48.2550495
            ],
            [
              16.4721716,
              48.2551839
            ],
            [
              16.4722104,
              48.2552542
            ],
            [
              16.4726258,
              48.2551526
            ],
            [
              16.4723714,
              48.2546915
            ],
            [
              16.4722852,
              48.2545353
            ],
            [
              16.4722103,
              48.2543995
            ],
            [
              16.4720878,
              48.2544294
            ],
            [
              16.4720375,
              48.2543382
            ],
            [
              16.4719773,
              48.2542292
            ],
            [
              16.4719221,
              48.2541291
            ],
            [
              16.4719031,
              48.2540947
            ],
            [
              16.4718662,
              48.2540278
            ],
            [
              16.4718978,
              48.2540201
            ],
            [
              16.4719751,
              48.2540012
            ],
            [
              16.4719886,
              48.2539979
            ],
            [
              16.4720178,
              48.2539908
            ],
            [
              16.4719976,
              48.2539541
            ],
            [
              16.4719421,
              48.2538535
            ],
            [
              16.4718888,
              48.2537568
            ],
            [
              16.4717544,
              48.2535133
            ],
            [
              16.4716497,
              48.2535389
            ],
            [
              16.4716027,
              48.2535504
            ],
            [
              16.4713811,
              48.2531488
            ],
            [
              16.4703578,
              48.2533991
            ]
          ]
        ]
      }
    },
    {
      "type": "Feature",
      "id": "way/23046554",
      "properties": {
        "addr:city": "Wien",
        "addr:country": "AT",
        "addr:housenumber": "20-24",
        "addr:postcode": "1220",
        "addr:street": "Zwerchäckerweg",
        "building": "retail",
        "building:levels": "2",
        "roof:levels": "0",
        "roof:shape": "flat",
        "osm_id": "way/23046554"
      },
      "geometry": {
        "type": "Polygon",
        "coordinates": [
          [
            [
              16.468132,
              48.2501149
            ],
            [
              16.4683214,
              48.2501912
            ],
            [
              16.4684689,
              48.2502785
            ],
            [
              16.4684295,
              48.2503086
            ],
            [
              16.4685771,
              48.2504275
            ],
            [
              16.4686277,
              48.2503991
            ],
            [
              16.4687414,
              48.250507
            ],
            [
              16.4688283,
              48.2504588
            ],
            [
              16.4689848,
              48.2503772
            ],
            [
              16.4691209,
              48.2503235
            ],
            [
              16.4693086,
              48.2502552
            ],
            [
              16.4695474,
              48.2501891
            ],
            [
              16.4694191,
              48.2500747
            ],
            [
              16.4692844,
              48.2499784
            ],
            [
              16.4691066,
              48.2498828
            ],
            [
              16.4689406,
              48.2498077
            ],
            [
              16.4687351,
              48.2498809
            ],
            [
              16.4686985,
              48.2498446
            ],
            [
              16.4684092,
              48.2499534
            ],
            [
              16.468436,
              48.2499926
            ],
            [
              16.468132,
              48.2501149
            ]
          ]
        ]
      }
    },
    {
      "type": "Feature",
      "id": "way/23046557",
      "properties": {
        "addr:city": "Wien",
        "addr:country": "AT",
        "addr:housenumber": "4",
        "addr:postcode": "1220",
        "addr:street": "Zwerchäckerweg",
        "building": "retail",
        "building:levels": "2",
        "roof:levels": "0",
        "roof:shape": "flat",
        "osm_id": "way/23046557"
      },
      "geometry": {
        "type": "Polygon",
        "coordinates": [
          [
            [
              16.4674625,
              48.2494002
            ],
            [
              16.4675222,
              48.249569
            ],
            [
              16.4676108,
              48.2497012
            ],
            [
              16.4677716,
              48.2498635
            ],
            [
              16.4679499,
              48.2499787
            ],
            [
              16.4681039,
              48.2499201
            ],
            [
              16.4681395,
              48.2499602
            ],
            [
              16.468539,
              48.2498089
            ],
            [
              16.4685019,
              48.2497696
            ],
            [
              16.4687226,
              48.2496844
            ],
            [
              16.4685337,
              48.2495749
            ],
            [
              16.4684002,
              48.2494515
            ],
            [
              16.4682833,
              48.2492922
            ],
            [
              16.4682205,
              48.249112
            ],
            [
              16.4680035,
              48.2491935
            ],
            [
              16.4679705,
              48.249153
            ],
            [
              16.4678798,
              48.2491876
            ],
            [
              16.4675754,
              48.2493038
            ],
            [
              16.4676094,
              48.2493479
            ],
            [
              16.4674625,
              48.2494002
            ]
          ]
        ]
      }
    },
    {
      "type": "Feature",
      "id": "way/23046561",
      "properties": {
        "addr:city": "Wien",
        "addr:country": "AT",
        "addr:housenumber": "2",
        "addr:postcode": "1220",
        "addr:street": "Zwerchäckerweg",
        "building": "retail",
        "building:levels": "2",
        "roof:levels": "0",
        "roof:shape": "flat",
        "osm_id": "way/23046561"
      },
      "geometry": {
        "type": "Polygon",
        "coordinates": [
          [
            [
              16.466689,
              48.2486608
            ],
            [
              16.4669003,
              48.2487779
            ],
            [
              16.4670904,
              48.248927
            ],
            [
              16.4672144,
              48.2490764
            ],
            [
              16.46731,
              48.2492556
            ],
            [
              16.4674758,
              48.2491926
            ],
            [
              16.4675113,
              48.2492313
            ],
            [
              16.4678195,
              48.2491176
            ],
            [
              16.4679107,
              48.249084
            ],
            [
              16.4678735,
              48.2490417
            ],
            [
              16.4680731,
              48.2489659
            ],
            [
              16.4680035,
              48.2488064
            ],
            [
              16.467878,
              48.2486522
            ],
            [
              16.4679241,
              48.2486376
            ],
            [
              16.467802,
              48.2485224
            ],
            [
              16.4677983,
              48.2485196
            ],
            [
              16.4677289,
              48.2484666
            ],
            [
              16.4676758,
              48.2484856
            ],
            [
              16.4675669,
              48.2484224
            ],
            [
              16.4674495,
              48.2483639
            ],
            [
              16.4673225,
              48.2484403
            ],
            [
              16.4671464,
              48.2485293
            ],
            [
              16.4669258,
              48.2486059
            ],
            [
              16.466689,
              48.2486608
            ]
          ]
        ]
      }
    },
    {
      "type": "Feature",
      "id": "way/38921810",
      "properties": {
        "addr:city": "Wien",
        "addr:country": "AT",
        "addr:housenumber": "1a",
        "addr:postcode": "1220",
        "addr:street": "Sverigestraße",
        "brand": "OBI",
        "brand:wikidata": "Q300518",
        "brand:wikipedia": "en:Obi (store)",
        "building": "retail",
        "building:levels": "1",
        "check_date:opening_hours": "2026-07-25",
        "name": "OBI",
        "opening_hours": "Mo-Fr 07:00-19:20; Sa 07:40-18:00",
        "phone": "+43 1 415380",
        "roof:levels": "0",
        "shop": "doityourself",
        "wheelchair": "yes",
        "osm_id": "way/38921810"
      },
      "geometry": {
        "type": "Polygon",
        "coordinates": [
          [
            [
              16.4713811,
              48.2531488
            ],
            [
              16.4711041,
              48.2526461
            ],
            [
              16.4711868,
              48.2526259
            ],
            [
              16.4711436,
              48.2525475
            ],
            [
              16.4711163,
              48.2524979
            ],
            [
              16.4710935,
              48.2524566
            ],
            [
              16.4710603,
              48.2524647
            ],
            [
              16.471036,
              48.2524206
            ],
            [
              16.4709856,
              48.252433
            ],
            [
              16.470771,
              48.2520437
            ],
            [
              16.4703957,
              48.2521354
            ],
            [
              16.4703398,
              48.252034
            ],
            [
              16.4701002,
              48.2520926
            ],
            [
              16.4701233,
              48.2521344
            ],
            [
              16.4698781,
              48.2521943
            ],
            [
              16.4700183,
              48.2524487
            ],
            [
              16.4698558,
              48.2524884
            ],
            [
              16.4703578,
              48.2533991
            ],
            [
              16.4713811,
              48.2531488
            ]
          ]
        ]
      }
    },
    {
      "type": "Feature",
      "id": "way/47031348",
      "properties": {
        "addr:city": "Wien",
        "addr:country": "AT",
        "addr:district": "22. Donaustadt",
        "addr:housenumber": "104",
        "addr:postcode": "1220",
        "addr:street": "Breitenleer Straße",
        "brand": "Hofer",
        "brand:wikidata": "Q15815751",
        "brand:wikipedia": "de:Hofer KG",
        "building": "retail",
        "name": "Hofer",
        "opening_hours": "Mo-Fr 07:40-20:00; Sa 07:40-18:00",
        "shop": "supermarket",
        "website": "https://www.hofer.at/",
        "osm_id": "way/47031348"
      },
      "geometry": {
        "type": "Polygon",
        "coordinates": [
          [
            [
              16.4695034,
              48.2508968
            ],
            [
              16.469576,
              48.2509874
            ],
            [
              16.4692587,
              48.251067
            ],
            [
              16.4693251,
              48.2513195
            ],
            [
              16.4697916,
              48.2512711
            ],
            [
              16.4697887,
              48.2512344
            ],
            [
              16.4699254,
              48.2512192
            ],
            [
              16.4699182,
              48.2511886
            ],
            [
              16.4698797,
              48.2510257
            ],
            [
              16.4698259,
              48.2509618
            ],
            [
              16.4697668,
              48.2509034
            ],
            [
              16.4697057,
              48.250826
            ],
            [
              16.4696725,
              48.2508377
            ],
            [
              16.4695034,
              48.2508968
            ]
          ]
        ]
      }
    },
    {
      "type": "Feature",
      "id": "way/47031349",
      "properties": {
        "addr:city": "Wien",
        "addr:country": "AT",
        "addr:district": "22. Donaustadt",
        "addr:housenumber": "10",
        "addr:postcode": "1220",
        "addr:street": "Zwerchäckerweg",
        "building": "yes",
        "name": "Lucky Car",
        "opening_hours": "Mo-Fr 07:30-17:00",
        "shop": "car_repair",
        "osm_id": "way/47031349"
      },
      "geometry": {
        "type": "Polygon",
        "coordinates": [
          [
            [
              16.4695168,
              48.2506284
            ],
            [
              16.4686765,
              48.2509386
            ],
            [
              16.4688186,
              48.2511206
            ],
            [
              16.4690784,
              48.2510264
            ],
            [
              16.4690951,
              48.2510491
            ],
            [
              16.4695034,
              48.2508968
            ],
            [
              16.4696725,
              48.2508377
            ],
            [
              16.4695168,
              48.2506284
            ]
          ]
        ]
      }
    },
    {
      "type": "Feature",
      "id": "way/164941535",
      "properties": {
        "building": "service",
        "power": "substation",
        "osm_id": "way/164941535"
      },
      "geometry": {
        "type": "Polygon",
        "coordinates": [
          [
            [
              16.4725009,
              48.2516145
            ],
            [
              16.4725024,
              48.2515512
            ],
            [
              16.4726007,
              48.2515523
            ],
            [
              16.4725992,
              48.2516156
            ],
            [
              16.4725009,
              48.2516145
            ]
          ]
        ]
      }
    },
    {
      "type": "Feature",
      "id": "way/164941536",
      "properties": {
        "addr:city": "Wien",
        "addr:country": "AT",
        "addr:housenumber": "112",
        "addr:postcode": "1220",
        "addr:street": "Breitenleer Straße",
        "building": "retail",
        "building:levels": "1",
        "roof:shape": "flat",
        "osm_id": "way/164941536"
      },
      "geometry": {
        "type": "Polygon",
        "coordinates": [
          [
            [
              16.472087,
              48.2514546
            ],
            [
              16.4719126,
              48.2515315
            ],
            [
              16.4717756,
              48.251388
            ],
            [
              16.4717708,
              48.2513829
            ],
            [
              16.4717749,
              48.2513812
            ],
            [
              16.4718484,
              48.25135
            ],
            [
              16.4719058,
              48.2513258
            ],
            [
              16.4719241,
              48.251318
            ],
            [
              16.4719112,
              48.2513029
            ],
            [
              16.4719254,
              48.2512963
            ],
            [
              16.472087,
              48.2514546
            ]
          ]
        ]
      }
    },
    {
      "type": "Feature",
      "id": "way/164941537",
      "properties": {
        "building": "yes",
        "osm_id": "way/164941537"
      },
      "geometry": {
        "type": "Polygon",
        "coordinates": [
          [
            [
              16.4717318,
              48.2509064
            ],
            [
              16.4716128,
              48.2509573
            ],
            [
              16.4716104,
              48.2509548
            ],
            [
              16.4715651,
              48.2509078
            ],
            [
              16.4716842,
              48.2508569
            ],
            [
              16.4717318,
              48.2509064
            ]
          ]
        ]
      }
    },
    {
      "type": "Feature",
      "id": "way/164941540",
      "properties": {
        "amenity": "car_wash",
        "automated": "yes",
        "brand": "OMV",
        "brand:wikidata": "Q168238",
        "building": "yes",
        "name": "OMV",
        "opening_hours": "PH,Mo-Su 00:00-24:00",
        "self_service": "no",
        "osm_id": "way/164941540"
      },
      "geometry": {
        "type": "Polygon",
        "coordinates": [
          [
            [
              16.4722209,
              48.2513718
            ],
            [
              16.472214,
              48.2513747
            ],
            [
              16.4721185,
              48.2514157
            ],
            [
              16.4720457,
              48.2513402
            ],
            [
              16.472084,
              48.2513238
            ],
            [
              16.4720591,
              48.251298
            ],
            [
              16.4720646,
              48.2512956
            ],
            [
              16.4720696,
              48.2512935
            ],
            [
              16.4721231,
              48.2512706
            ],
            [
              16.4722209,
              48.2513718
            ]
          ]
        ]
      }
    },
    {
      "type": "Feature",
      "id": "way/164941542",
      "properties": {
        "building": "yes",
        "osm_id": "way/164941542"
      },
      "geometry": {
        "type": "Polygon",
        "coordinates": [
          [
            [
              16.4747009,
              48.2522343
            ],
            [
              16.4747927,
              48.2522139
            ],
            [
              16.4748991,
              48.2524262
            ],
            [
              16.474385,
              48.2525404
            ],
            [
              16.4742799,
              48.2523309
            ],
            [
              16.4743776,
              48.2523092
            ],
            [
              16.4744419,
              48.2524374
            ],
            [
              16.4747665,
              48.2523652
            ],
            [
              16.4747009,
              48.2522343
            ]
          ]
        ]
      }
    },
    {
      "type": "Feature",
      "id": "way/164941544",
      "properties": {
        "addr:city": "Wien",
        "addr:country": "AT",
        "addr:district": "22. Donaustadt",
        "addr:housenumber": "52",
        "addr:postcode": "1220",
        "addr:street": "Breitenleer Straße",
        "amenity": "fast_food",
        "brand": "McDonald's",
        "brand:wikidata": "Q38076",
        "brand:wikipedia": "en:McDonald's",
        "building": "yes",
        "cuisine": "burger",
        "indoor_seating": "yes",
        "name": "McDonald's",
        "outdoor_seating": "yes",
        "takeaway": "yes",
        "website": "https://www.mcdonalds.at/",
        "osm_id": "way/164941544"
      },
      "geometry": {
        "type": "Polygon",
        "coordinates": [
          [
            [
              16.4708962,
              48.2503106
            ],
            [
              16.4707639,
              48.2501825
            ],
            [
              16.4706195,
              48.2500427
            ],
            [
              16.4707286,
              48.2499937
            ],
            [
              16.470686,
              48.2499527
            ],
            [
              16.4707386,
              48.2499306
            ],
            [
              16.4707808,
              48.249972
            ],
            [
              16.470789,
              48.2499684
            ],
            [
              16.4707941,
              48.2499662
            ],
            [
              16.4708227,
              48.2499891
            ],
            [
              16.4708338,
              48.2499832
            ],
            [
              16.4708625,
              48.2500106
            ],
            [
              16.4708492,
              48.2500161
            ],
            [
              16.470915,
              48.2500799
            ],
            [
              16.4709268,
              48.2500742
            ],
            [
              16.4709532,
              48.2501005
            ],
            [
              16.4709429,
              48.2501055
            ],
            [
              16.4709795,
              48.2501389
            ],
            [
              16.4709883,
              48.2501348
            ],
            [
              16.4710146,
              48.2501609
            ],
            [
              16.4710037,
              48.2501659
            ],
            [
              16.4710691,
              48.2502305
            ],
            [
              16.4709982,
              48.2502633
            ],
            [
              16.4710065,
              48.2502703
            ],
            [
              16.4709921,
              48.2502771
            ],
            [
              16.4709737,
              48.2502858
            ],
            [
              16.470966,
              48.2502782
            ],
            [
              16.4708962,
              48.2503106
            ]
          ]
        ]
      }
    },
    {
      "type": "Feature",
      "id": "way/164941849",
      "properties": {
        "addr:city": "Wien",
        "addr:country": "AT",
        "addr:district": "22. Donaustadt",
        "addr:housenumber": "66",
        "addr:postcode": "1220",
        "addr:street": "Süßenbrunner Straße",
        "addr:unit": "2",
        "building": "apartments",
        "building:levels": "3",
        "roof:levels": "0",
        "osm_id": "way/164941849"
      },
      "geometry": {
        "type": "Polygon",
        "coordinates": [
          [
            [
              16.4759522,
              48.2498376
            ],
            [
              16.4760945,
              48.2497747
            ],
            [
              16.4757255,
              48.2494133
            ],
            [
              16.4755756,
              48.2494812
            ],
            [
              16.4759522,
              48.2498376
            ]
          ]
        ]
      }
    },
    {
      "type": "Feature",
      "id": "way/164941850",
      "properties": {
        "addr:city": "Wien",
        "addr:country": "AT",
        "addr:district": "22. Donaustadt",
        "addr:housenumber": "66",
        "addr:postcode": "1220",
        "addr:street": "Süßenbrunner Straße",
        "addr:unit": "3",
        "building": "apartments",
        "building:levels": "3",
        "roof:levels": "0",
        "osm_id": "way/164941850"
      },
      "geometry": {
        "type": "Polygon",
        "coordinates": [
          [
            [
              16.476354,
              48.2502353
            ],
            [
              16.4764991,
              48.2501693
            ],
            [
              16.4761284,
              48.2498081
            ],
            [
              16.4759833,
              48.2498741
            ],
            [
              16.476354,
              48.2502353
            ]
          ]
        ]
      }
    },
    {
      "type": "Feature",
      "id": "way/164941851",
      "properties": {
        "addr:city": "Wien",
        "addr:country": "AT",
        "addr:district": "22. Donaustadt",
        "addr:housenumber": "66",
        "addr:postcode": "1220",
        "addr:street": "Süßenbrunner Straße",
        "addr:unit": "1",
        "building": "apartments",
        "building:levels": "3",
        "roof:levels": "0",
        "osm_id": "way/164941851"
      },
      "geometry": {
        "type": "Polygon",
        "coordinates": [
          [
            [
              16.4755444,
              48.2494455
            ],
            [
              16.4756898,
              48.2493803
            ],
            [
              16.4753266,
              48.2490209
            ],
            [
              16.4751813,
              48.249086
            ],
            [
              16.4755444,
              48.2494455
            ]
          ]
        ]
      }
    },
    {
      "type": "Feature",
      "id": "way/165097126",
      "properties": {
        "building": "retail",
        "osm_id": "way/165097126"
      },
      "geometry": {
        "type": "Polygon",
        "coordinates": [
          [
            [
              16.4686621,
              48.2521337
            ],
            [
              16.4686553,
              48.2521224
            ],
            [
              16.4684883,
              48.2518466
            ],
            [
              16.4686416,
              48.251805
            ],
            [
              16.4687946,
              48.2517635
            ],
            [
              16.4689237,
              48.2519747
            ],
            [
              16.4686672,
              48.2520443
            ],
            [
              16.4687134,
              48.2521198
            ],
            [
              16.4686621,
              48.2521337
            ]
          ]
        ]
      }
    },
    {
      "type": "Feature",
      "id": "way/165097127",
      "properties": {
        "building": "kindergarten",
        "building:levels": "1",
        "roof:levels": "1",
        "roof:shape": "gabled",
        "osm_id": "way/165097127"
      },
      "geometry": {
        "type": "Polygon",
        "coordinates": [
          [
            [
              16.4692966,
              48.2520555
            ],
            [
              16.4693212,
              48.2520497
            ],
            [
              16.4694193,
              48.252027
            ],
            [
              16.4693319,
              48.2518599
            ],
            [
              16.4692092,
              48.2518884
            ],
            [
              16.4692116,
              48.251893
            ],
            [
              16.4692541,
              48.2519742
            ],
            [
              16.4692966,
              48.2520555
            ]
          ]
        ]
      }
    },
    {
      "type": "Feature",
      "id": "way/165097129",
      "properties": {
        "building": "roof",
        "layer": "1",
        "osm_id": "way/165097129"
      },
      "geometry": {
        "type": "Polygon",
        "coordinates": [
          [
            [
              16.4703099,
              48.2513512
            ],
            [
              16.470395,
              48.2513542
            ],
            [
              16.4704666,
              48.2513506
            ],
            [
              16.470472,
              48.2512857
            ],
            [
              16.4704382,
              48.2512842
            ],
            [
              16.4703549,
              48.2512835
            ],
            [
              16.4703197,
              48.2512814
            ],
            [
              16.4703139,
              48.2512811
            ],
            [
              16.4703118,
              48.2513177
            ],
            [
              16.4703099,
              48.2513512
            ]
          ]
        ]
      }
    },
    {
      "type": "Feature",
      "id": "way/165097130",
      "properties": {
        "amenity": "car_wash",
        "automated": "yes",
        "brand": "OMV",
        "brand:wikidata": "Q168238",
        "building": "yes",
        "name": "OMV",
        "self_service": "yes",
        "osm_id": "way/165097130"
      },
      "geometry": {
        "type": "Polygon",
        "coordinates": [
          [
            [
              16.4699165,
              48.2510695
            ],
            [
              16.469972,
              48.2510488
            ],
            [
              16.4700026,
              48.2510374
            ],
            [
              16.469912,
              48.2509297
            ],
            [
              16.4698709,
              48.250945
            ],
            [
              16.4698259,
              48.2509618
            ],
            [
              16.4698797,
              48.2510257
            ],
            [
              16.4699165,
              48.2510695
            ]
          ]
        ]
      }
    },
    {
      "type": "Feature",
      "id": "way/192975208",
      "properties": {
        "addr:city": "Wien",
        "addr:country": "AT",
        "addr:housenumber": "104",
        "addr:postcode": "1220",
        "addr:street": "Breitenleer Straße",
        "building": "yes",
        "name": "Carglass Wien",
        "phone": "+43 1 8906218-120",
        "website": "https://www.carglass.at/filiale/Wien",
        "osm_id": "way/192975208"
      },
      "geometry": {
        "type": "Polygon",
        "coordinates": [
          [
            [
              16.4678114,
              48.2514398
            ],
            [
              16.4678111,
              48.2513736
            ],
            [
              16.4678018,
              48.2513115
            ],
            [
              16.46793,
              48.2513054
            ],
            [
              16.4679331,
              48.2513828
            ],
            [
              16.4679332,
              48.2514397
            ],
            [
              16.4678114,
              48.2514398
            ]
          ]
        ]
      }
    },
    {
      "type": "Feature",
      "id": "way/192975210",
      "properties": {
        "building": "yes",
        "osm_id": "way/192975210"
      },
      "geometry": {
        "type": "Polygon",
        "coordinates": [
          [
            [
              16.4675099,
              48.2511384
            ],
            [
              16.4674848,
              48.2510744
            ],
            [
              16.4676495,
              48.2510434
            ],
            [
              16.4678821,
              48.2509571
            ],
            [
              16.4679264,
              48.2510119
            ],
            [
              16.4676701,
              48.2511048
            ],
            [
              16.4675099,
              48.2511384
            ]
          ]
        ]
      }
    },
    {
      "type": "Feature",
      "id": "way/192975211",
      "properties": {
        "addr:city": "Wien",
        "addr:country": "AT",
        "addr:housenumber": "102A",
        "addr:postcode": "1220",
        "addr:street": "Breitenleer Straße",
        "building": "yes",
        "osm_id": "way/192975211"
      },
      "geometry": {
        "type": "Polygon",
        "coordinates": [
          [
            [
              16.4673712,
              48.2514581
            ],
            [
              16.4674603,
              48.2514455
            ],
            [
              16.4674502,
              48.2514099
            ],
            [
              16.4674912,
              48.2514023
            ],
            [
              16.4674873,
              48.2513774
            ],
            [
              16.4675423,
              48.2513731
            ],
            [
              16.4678111,
              48.2513736
            ],
            [
              16.4678018,
              48.2513115
            ],
            [
              16.46793,
              48.2513054
            ],
            [
              16.4679331,
              48.2513828
            ],
            [
              16.4680966,
              48.2513824
            ],
            [
              16.4680972,
              48.251283
            ],
            [
              16.4678806,
              48.2512849
            ],
            [
              16.4678785,
              48.2512482
            ],
            [
              16.4679425,
              48.2512469
            ],
            [
              16.4679454,
              48.2511202
            ],
            [
              16.4678925,
              48.2510492
            ],
            [
              16.4676619,
              48.2511324
            ],
            [
              16.4675886,
              48.2511404
            ],
            [
              16.4675935,
              48.2511953
            ],
            [
              16.4674513,
              48.2511946
            ],
            [
              16.4674528,
              48.2512239
            ],
            [
              16.4673662,
              48.2512248
            ],
            [
              16.467364,
              48.251335
            ],
            [
              16.4673245,
              48.2513449
            ],
            [
              16.4673712,
              48.2514581
            ]
          ]
        ]
      }
    },
    {
      "type": "Feature",
      "id": "way/192975213",
      "properties": {
        "building": "yes",
        "name": "OPEL",
        "osm_id": "way/192975213"
      },
      "geometry": {
        "type": "Polygon",
        "coordinates": [
          [
            [
              16.4677379,
              48.2507896
            ],
            [
              16.4678821,
              48.2509571
            ],
            [
              16.4679839,
              48.2509203
            ],
            [
              16.4678404,
              48.2507494
            ],
            [
              16.4679785,
              48.250697
            ],
            [
              16.4676786,
              48.2503536
            ],
            [
              16.4675384,
              48.2504075
            ],
            [
              16.467451,
              48.250442
            ],
            [
              16.4677379,
              48.2507896
            ]
          ]
        ]
      }
    },
    {
      "type": "Feature",
      "id": "way/218429274",
      "properties": {
        "building": "roof",
        "building:levels": "1",
        "osm_id": "way/218429274"
      },
      "geometry": {
        "type": "Polygon",
        "coordinates": [
          [
            [
              16.4719591,
              48.2538493
            ],
            [
              16.4719421,
              48.2538535
            ],
            [
              16.4718888,
              48.2537568
            ],
            [
              16.4717544,
              48.2535133
            ],
            [
              16.4716497,
              48.2535389
            ],
            [
              16.4714626,
              48.2531999
            ],
            [
              16.4711581,
              48.2526484
            ],
            [
              16.4711843,
              48.2526419
            ],
            [
              16.4712114,
              48.2526353
            ],
            [
              16.4716661,
              48.2534592
            ],
            [
              16.4716918,
              48.2535058
            ],
            [
              16.4717472,
              48.2534923
            ],
            [
              16.4717759,
              48.2534852
            ],
            [
              16.4717893,
              48.2535095
            ],
            [
              16.4719214,
              48.2537488
            ],
            [
              16.4719747,
              48.2538455
            ],
            [
              16.4719591,
              48.2538493
            ]
          ]
        ]
      }
    },
    {
      "type": "Feature",
      "id": "way/243512938",
      "properties": {
        "building": "house",
        "osm_id": "way/243512938"
      },
      "geometry": {
        "type": "Polygon",
        "coordinates": [
          [
            [
              16.4701342,
              48.2541971
            ],
            [
              16.470267,
              48.2541648
            ],
            [
              16.4702171,
              48.2540739
            ],
            [
              16.4700843,
              48.2541062
            ],
            [
              16.4701342,
              48.2541971
            ]
          ]
        ]
      }
    },
    {
      "type": "Feature",
      "id": "way/243512939",
      "properties": {
        "building": "house",
        "osm_id": "way/243512939"
      },
      "geometry": {
        "type": "Polygon",
        "coordinates": [
          [
            [
              16.4700017,
              48.2542293
            ],
            [
              16.4699518,
              48.2541384
            ],
            [
              16.4700843,
              48.2541062
            ],
            [
              16.4701342,
              48.2541971
            ],
            [
              16.4700017,
              48.2542293
            ]
          ]
        ]
      }
    },
    {
      "type": "Feature",
      "id": "way/243514938",
      "properties": {
        "building": "yes",
        "osm_id": "way/243514938"
      },
      "geometry": {
        "type": "Polygon",
        "coordinates": [
          [
            [
              16.4691349,
              48.2529048
            ],
            [
              16.4690358,
              48.2527424
            ],
            [
              16.4693395,
              48.2526588
            ],
            [
              16.4694401,
              48.2528208
            ],
            [
              16.4691349,
              48.2529048
            ]
          ]
        ]
      }
    },
    {
      "type": "Feature",
      "id": "way/243514941",
      "properties": {
        "building": "yes",
        "osm_id": "way/243514941"
      },
      "geometry": {
        "type": "Polygon",
        "coordinates": [
          [
            [
              16.4689343,
              48.2525762
            ],
            [
              16.4688025,
              48.2523644
            ],
            [
              16.4691062,
              48.252281
            ],
            [
              16.4692374,
              48.252493
            ],
            [
              16.4689343,
              48.2525762
            ]
          ]
        ]
      }
    },
    {
      "type": "Feature",
      "id": "way/354106544",
      "properties": {
        "building": "yes",
        "osm_id": "way/354106544"
      },
      "geometry": {
        "type": "Polygon",
        "coordinates": [
          [
            [
              16.4703921,
              48.2543372
            ],
            [
              16.4703684,
              48.2543435
            ],
            [
              16.4703748,
              48.2543542
            ],
            [
              16.4703467,
              48.2543617
            ],
            [
              16.4703647,
              48.2543918
            ],
            [
              16.4704165,
              48.254378
            ],
            [
              16.4703921,
              48.2543372
            ]
          ]
        ]
      }
    },
    {
      "type": "Feature",
      "id": "way/354110669",
      "properties": {
        "building": "yes",
        "osm_id": "way/354110669"
      },
      "geometry": {
        "type": "Polygon",
        "coordinates": [
          [
            [
              16.4699486,
              48.253651
            ],
            [
              16.4698205,
              48.2534416
            ],
            [
              16.4695178,
              48.2535237
            ],
            [
              16.469646,
              48.2537331
            ],
            [
              16.4699486,
              48.253651
            ]
          ]
        ]
      }
    },
    {
      "type": "Feature",
      "id": "way/354110727",
      "properties": {
        "building": "yes",
        "osm_id": "way/354110727"
      },
      "geometry": {
        "type": "Polygon",
        "coordinates": [
          [
            [
              16.4684515,
              48.2539249
            ],
            [
              16.4682674,
              48.2539738
            ],
            [
              16.4682958,
              48.2540215
            ],
            [
              16.4684799,
              48.2539725
            ],
            [
              16.4684515,
              48.2539249
            ]
          ]
        ]
      }
    },
    {
      "type": "Feature",
      "id": "way/354110777",
      "properties": {
        "building": "yes",
        "osm_id": "way/354110777"
      },
      "geometry": {
        "type": "Polygon",
        "coordinates": [
          [
            [
              16.4684456,
              48.2527309
            ],
            [
              16.4678614,
              48.2529051
            ],
            [
              16.4679714,
              48.2530712
            ],
            [
              16.4685559,
              48.2528958
            ],
            [
              16.4684456,
              48.2527309
            ]
          ]
        ]
      }
    },
    {
      "type": "Feature",
      "id": "way/354110805",
      "properties": {
        "building": "yes",
        "osm_id": "way/354110805"
      },
      "geometry": {
        "type": "Polygon",
        "coordinates": [
          [
            [
              16.4680058,
              48.2532057
            ],
            [
              16.4679684,
              48.2531483
            ],
            [
              16.4679325,
              48.2531586
            ],
            [
              16.467921,
              48.2531409
            ],
            [
              16.4678517,
              48.2531609
            ],
            [
              16.4678441,
              48.2531492
            ],
            [
              16.4677488,
              48.2531767
            ],
            [
              16.4678053,
              48.2532635
            ],
            [
              16.4680058,
              48.2532057
            ]
          ]
        ]
      }
    },
    {
      "type": "Feature",
      "id": "way/354110806",
      "properties": {
        "building": "yes",
        "osm_id": "way/354110806"
      },
      "geometry": {
        "type": "Polygon",
        "coordinates": [
          [
            [
              16.4678082,
              48.2539408
            ],
            [
              16.4678071,
              48.2539387
            ],
            [
              16.4677448,
              48.2539522
            ],
            [
              16.4677641,
              48.2539916
            ],
            [
              16.4678264,
              48.253978
            ],
            [
              16.4678082,
              48.2539408
            ]
          ]
        ]
      }
    },
    {
      "type": "Feature",
      "id": "way/354110871",
      "properties": {
        "building": "yes",
        "osm_id": "way/354110871"
      },
      "geometry": {
        "type": "Polygon",
        "coordinates": [
          [
            [
              16.4694754,
              48.2534553
            ],
            [
              16.4695481,
              48.2534361
            ],
            [
              16.4695276,
              48.2534019
            ],
            [
              16.46948,
              48.2533223
            ],
            [
              16.4694074,
              48.2533416
            ],
            [
              16.4694754,
              48.2534553
            ]
          ]
        ]
      }
    },
    {
      "type": "Feature",
      "id": "way/354110897",
      "properties": {
        "building": "yes",
        "osm_id": "way/354110897"
      },
      "geometry": {
        "type": "Polygon",
        "coordinates": [
          [
            [
              16.4678441,
              48.2531492
            ],
            [
              16.4678656,
              48.2531433
            ],
            [
              16.4678252,
              48.2530806
            ],
            [
              16.4678053,
              48.2530495
            ],
            [
              16.4677337,
              48.25307
            ],
            [
              16.4676886,
              48.2530829
            ],
            [
              16.4677488,
              48.2531767
            ],
            [
              16.4678441,
              48.2531492
            ]
          ]
        ]
      }
    },
    {
      "type": "Feature",
      "id": "way/354110914",
      "properties": {
        "building": "yes",
        "osm_id": "way/354110914"
      },
      "geometry": {
        "type": "Polygon",
        "coordinates": [
          [
            [
              16.4677872,
              48.2521797
            ],
            [
              16.4677912,
              48.2523462
            ],
            [
              16.4677987,
              48.2523462
            ],
            [
              16.4682843,
              48.2523411
            ],
            [
              16.4682804,
              48.2521746
            ],
            [
              16.4682501,
              48.2521749
            ],
            [
              16.4679128,
              48.2521784
            ],
            [
              16.4678272,
              48.2521793
            ],
            [
              16.4677872,
              48.2521797
            ]
          ]
        ]
      }
    },
    {
      "type": "Feature",
      "id": "way/354110918",
      "properties": {
        "building": "yes",
        "osm_id": "way/354110918"
      },
      "geometry": {
        "type": "Polygon",
        "coordinates": [
          [
            [
              16.4683605,
              48.2532267
            ],
            [
              16.468225,
              48.2532659
            ],
            [
              16.468209,
              48.2532414
            ],
            [
              16.4678948,
              48.2533323
            ],
            [
              16.4679289,
              48.2533847
            ],
            [
              16.4683786,
              48.2532546
            ],
            [
              16.4683605,
              48.2532267
            ]
          ]
        ]
      }
    },
    {
      "type": "Feature",
      "id": "way/354110923",
      "properties": {
        "building": "yes",
        "osm_id": "way/354110923"
      },
      "geometry": {
        "type": "Polygon",
        "coordinates": [
          [
            [
              16.4696668,
              48.253194
            ],
            [
              16.4695386,
              48.2529848
            ],
            [
              16.4692384,
              48.2530663
            ],
            [
              16.4693666,
              48.2532756
            ],
            [
              16.4696668,
              48.253194
            ]
          ]
        ]
      }
    },
    {
      "type": "Feature",
      "id": "way/354110927",
      "properties": {
        "building": "yes",
        "osm_id": "way/354110927"
      },
      "geometry": {
        "type": "Polygon",
        "coordinates": [
          [
            [
              16.4701728,
              48.2540184
            ],
            [
              16.4700453,
              48.2538084
            ],
            [
              16.4697393,
              48.2538861
            ],
            [
              16.4698605,
              48.2540932
            ],
            [
              16.470052,
              48.2540472
            ],
            [
              16.4701728,
              48.2540184
            ]
          ]
        ]
      }
    },
    {
      "type": "Feature",
      "id": "way/354113761",
      "properties": {
        "building": "yes",
        "osm_id": "way/354113761"
      },
      "geometry": {
        "type": "Polygon",
        "coordinates": [
          [
            [
              16.467865,
              48.2537129
            ],
            [
              16.4678728,
              48.2537143
            ],
            [
              16.4678795,
              48.2537173
            ],
            [
              16.4678842,
              48.2537216
            ],
            [
              16.4678865,
              48.2537267
            ],
            [
              16.467886,
              48.2537321
            ],
            [
              16.4678829,
              48.253737
            ],
            [
              16.4678774,
              48.2537409
            ],
            [
              16.4678702,
              48.2537434
            ],
            [
              16.4678632,
              48.2537441
            ],
            [
              16.4678561,
              48.2537433
            ],
            [
              16.4678498,
              48.2537412
            ],
            [
              16.4678446,
              48.2537379
            ],
            [
              16.4678412,
              48.2537337
            ],
            [
              16.4678399,
              48.2537291
            ],
            [
              16.4678407,
              48.2537244
            ],
            [
              16.4678441,
              48.2537195
            ],
            [
              16.4678498,
              48.2537157
            ],
            [
              16.467857,
              48.2537135
            ],
            [
              16.467865,
              48.2537129
            ]
          ]
        ]
      }
    },
    {
      "type": "Feature",
      "id": "way/354113762",
      "properties": {
        "building": "yes",
        "osm_id": "way/354113762"
      },
      "geometry": {
        "type": "Polygon",
        "coordinates": [
          [
            [
              16.4678188,
              48.2536828
            ],
            [
              16.4678235,
              48.253679
            ],
            [
              16.4678299,
              48.2536764
            ],
            [
              16.4678372,
              48.2536753
            ],
            [
              16.4678446,
              48.2536759
            ],
            [
              16.4678513,
              48.2536781
            ],
            [
              16.4678566,
              48.2536816
            ],
            [
              16.4678598,
              48.2536861
            ],
            [
              16.4678607,
              48.2536911
            ],
            [
              16.467859,
              48.2536959
            ],
            [
              16.4678551,
              48.2537001
            ],
            [
              16.4678496,
              48.2537032
            ],
            [
              16.4678429,
              48.2537049
            ],
            [
              16.4678357,
              48.2537051
            ],
            [
              16.4678288,
              48.2537038
            ],
            [
              16.4678229,
              48.2537011
            ],
            [
              16.4678184,
              48.2536972
            ],
            [
              16.467816,
              48.2536924
            ],
            [
              16.4678162,
              48.2536875
            ],
            [
              16.4678188,
              48.2536828
            ]
          ]
        ]
      }
    },
    {
      "type": "Feature",
      "id": "way/354113763",
      "properties": {
        "building": "yes",
        "osm_id": "way/354113763"
      },
      "geometry": {
        "type": "Polygon",
        "coordinates": [
          [
            [
              16.467937,
              48.2536993
            ],
            [
              16.467942,
              48.2537032
            ],
            [
              16.4679447,
              48.2537079
            ],
            [
              16.467945,
              48.253713
            ],
            [
              16.4679426,
              48.2537179
            ],
            [
              16.4679381,
              48.253722
            ],
            [
              16.4679317,
              48.2537248
            ],
            [
              16.4679246,
              48.2537261
            ],
            [
              16.4679172,
              48.2537258
            ],
            [
              16.4679104,
              48.2537239
            ],
            [
              16.4679048,
              48.2537207
            ],
            [
              16.4679011,
              48.2537165
            ],
            [
              16.4678995,
              48.2537117
            ],
            [
              16.4679003,
              48.2537069
            ],
            [
              16.4679034,
              48.2537024
            ],
            [
              16.4679085,
              48.2536989
            ],
            [
              16.4679153,
              48.2536965
            ],
            [
              16.4679228,
              48.2536957
            ],
            [
              16.4679304,
              48.2536967
            ],
            [
              16.467937,
              48.2536993
            ]
          ]
        ]
      }
    },
    {
      "type": "Feature",
      "id": "way/354113764",
      "properties": {
        "building": "yes",
        "osm_id": "way/354113764"
      },
      "geometry": {
        "type": "Polygon",
        "coordinates": [
          [
            [
              16.4679183,
              48.2536641
            ],
            [
              16.4679213,
              48.2536688
            ],
            [
              16.4679218,
              48.2536739
            ],
            [
              16.4679197,
              48.2536788
            ],
            [
              16.4679153,
              48.2536829
            ],
            [
              16.467909,
              48.2536859
            ],
            [
              16.4679016,
              48.2536872
            ],
            [
              16.4678945,
              48.2536869
            ],
            [
              16.4678878,
              48.2536852
            ],
            [
              16.4678823,
              48.2536821
            ],
            [
              16.4678786,
              48.2536781
            ],
            [
              16.4678769,
              48.2536734
            ],
            [
              16.4678775,
              48.2536687
            ],
            [
              16.4678803,
              48.2536643
            ],
            [
              16.467885,
              48.2536607
            ],
            [
              16.4678912,
              48.2536583
            ],
            [
              16.4678987,
              48.2536573
            ],
            [
              16.4679063,
              48.253658
            ],
            [
              16.4679131,
              48.2536603
            ],
            [
              16.4679183,
              48.2536641
            ]
          ]
        ]
      }
    },
    {
      "type": "Feature",
      "id": "way/354113765",
      "properties": {
        "building": "yes",
        "osm_id": "way/354113765"
      },
      "geometry": {
        "type": "Polygon",
        "coordinates": [
          [
            [
              16.4678117,
              48.2536358
            ],
            [
              16.4678189,
              48.2536366
            ],
            [
              16.4678253,
              48.2536389
            ],
            [
              16.4678302,
              48.2536424
            ],
            [
              16.4678331,
              48.2536469
            ],
            [
              16.4678336,
              48.2536518
            ],
            [
              16.4678316,
              48.2536564
            ],
            [
              16.4678274,
              48.2536604
            ],
            [
              16.4678215,
              48.2536633
            ],
            [
              16.4678149,
              48.2536646
            ],
            [
              16.4678079,
              48.2536645
            ],
            [
              16.4678014,
              48.2536629
            ],
            [
              16.4677959,
              48.25366
            ],
            [
              16.4677921,
              48.2536562
            ],
            [
              16.4677903,
              48.2536517
            ],
            [
              16.4677908,
              48.2536471
            ],
            [
              16.4677934,
              48.2536428
            ],
            [
              16.4677982,
              48.2536391
            ],
            [
              16.4678045,
              48.2536367
            ],
            [
              16.4678117,
              48.2536358
            ]
          ]
        ]
      }
    },
    {
      "type": "Feature",
      "id": "way/354113766",
      "properties": {
        "building": "yes",
        "osm_id": "way/354113766"
      },
      "geometry": {
        "type": "Polygon",
        "coordinates": [
          [
            [
              16.4678738,
              48.253619
            ],
            [
              16.4678818,
              48.2536195
            ],
            [
              16.4678891,
              48.2536218
            ],
            [
              16.4678948,
              48.2536255
            ],
            [
              16.4678982,
              48.2536304
            ],
            [
              16.467899,
              48.2536357
            ],
            [
              16.467897,
              48.2536409
            ],
            [
              16.4678925,
              48.2536453
            ],
            [
              16.4678861,
              48.2536484
            ],
            [
              16.4678792,
              48.2536499
            ],
            [
              16.4678719,
              48.2536499
            ],
            [
              16.4678651,
              48.2536484
            ],
            [
              16.4678592,
              48.2536455
            ],
            [
              16.4678549,
              48.2536417
            ],
            [
              16.4678526,
              48.2536371
            ],
            [
              16.4678526,
              48.2536323
            ],
            [
              16.4678547,
              48.2536277
            ],
            [
              16.4678594,
              48.2536233
            ],
            [
              16.4678661,
              48.2536203
            ],
            [
              16.4678738,
              48.253619
            ]
          ]
        ]
      }
    },
    {
      "type": "Feature",
      "id": "way/354132493",
      "properties": {
        "building": "office",
        "osm_id": "way/354132493"
      },
      "geometry": {
        "type": "Polygon",
        "coordinates": [
          [
            [
              16.4673173,
              48.2521406
            ],
            [
              16.4673143,
              48.2520345
            ],
            [
              16.4678274,
              48.2520281
            ],
            [
              16.4678262,
              48.2519844
            ],
            [
              16.4676782,
              48.2519863
            ],
            [
              16.4676751,
              48.251873
            ],
            [
              16.4677522,
              48.2518721
            ],
            [
              16.4678687,
              48.2518707
            ],
            [
              16.4678716,
              48.2519781
            ],
            [
              16.4679006,
              48.2519778
            ],
            [
              16.4679015,
              48.2520102
            ],
            [
              16.467955,
              48.2520095
            ],
            [
              16.4679557,
              48.2520325
            ],
            [
              16.4679953,
              48.252032
            ],
            [
              16.4680024,
              48.252042
            ],
            [
              16.4680033,
              48.2521163
            ],
            [
              16.4679953,
              48.2521233
            ],
            [
              16.4679606,
              48.2521238
            ],
            [
              16.4679613,
              48.2521484
            ],
            [
              16.467912,
              48.252149
            ],
            [
              16.4679128,
              48.2521784
            ],
            [
              16.4678272,
              48.2521793
            ],
            [
              16.4678259,
              48.2521342
            ],
            [
              16.4673173,
              48.2521406
            ]
          ]
        ]
      }
    },
    {
      "type": "Feature",
      "id": "way/354132494",
      "properties": {
        "building": "yes",
        "osm_id": "way/354132494"
      },
      "geometry": {
        "type": "Polygon",
        "coordinates": [
          [
            [
              16.4685322,
              48.2540801
            ],
            [
              16.468519,
              48.2540984
            ],
            [
              16.4684978,
              48.254113
            ],
            [
              16.4684709,
              48.2541225
            ],
            [
              16.4684408,
              48.2541259
            ],
            [
              16.4684081,
              48.2541224
            ],
            [
              16.4683792,
              48.2541117
            ],
            [
              16.4683574,
              48.2540951
            ],
            [
              16.4683453,
              48.2540745
            ],
            [
              16.4683444,
              48.2540525
            ],
            [
              16.4683547,
              48.2540315
            ],
            [
              16.4683751,
              48.2540142
            ],
            [
              16.468403,
              48.2540024
            ],
            [
              16.4684354,
              48.2539976
            ],
            [
              16.4684657,
              48.2539999
            ],
            [
              16.4684934,
              48.2540083
            ],
            [
              16.4685158,
              48.2540222
            ],
            [
              16.4685306,
              48.25404
            ],
            [
              16.4685362,
              48.2540599
            ],
            [
              16.4685322,
              48.2540801
            ]
          ]
        ]
      }
    },
    {
      "type": "Feature",
      "id": "way/371460960",
      "properties": {
        "building": "apartments",
        "osm_id": "way/371460960"
      },
      "geometry": {
        "type": "Polygon",
        "coordinates": [
          [
            [
              16.4760361,
              48.2491944
            ],
            [
              16.4759675,
              48.2491277
            ],
            [
              16.4759382,
              48.2490989
            ],
            [
              16.475872,
              48.2490345
            ],
            [
              16.4757657,
              48.2490829
            ],
            [
              16.4759304,
              48.2492426
            ],
            [
              16.4760361,
              48.2491944
            ]
          ]
        ]
      }
    },
    {
      "type": "Feature",
      "id": "way/371460982",
      "properties": {
        "building": "apartments",
        "osm_id": "way/371460982"
      },
      "geometry": {
        "type": "Polygon",
        "coordinates": [
          [
            [
              16.4760473,
              48.2489255
            ],
            [
              16.4758819,
              48.2487624
            ],
            [
              16.4757731,
              48.2488116
            ],
            [
              16.4758429,
              48.2488803
            ],
            [
              16.4758679,
              48.2489046
            ],
            [
              16.475939,
              48.2489743
            ],
            [
              16.4760473,
              48.2489255
            ]
          ]
        ]
      }
    },
    {
      "type": "Feature",
      "id": "way/371461025",
      "properties": {
        "building": "apartments",
        "osm_id": "way/371461025"
      },
      "geometry": {
        "type": "Polygon",
        "coordinates": [
          [
            [
              16.4758497,
              48.249012
            ],
            [
              16.4757808,
              48.2489444
            ],
            [
              16.4757527,
              48.2489171
            ],
            [
              16.4756853,
              48.2488514
            ],
            [
              16.4755774,
              48.2489006
            ],
            [
              16.4757419,
              48.249061
            ],
            [
              16.4758497,
              48.249012
            ]
          ]
        ]
      }
    },
    {
      "type": "Feature",
      "id": "way/371461791",
      "properties": {
        "building": "apartments",
        "osm_id": "way/371461791"
      },
      "geometry": {
        "type": "Polygon",
        "coordinates": [
          [
            [
              16.4762224,
              48.2493774
            ],
            [
              16.4761528,
              48.2493097
            ],
            [
              16.4761231,
              48.2492805
            ],
            [
              16.4760578,
              48.2492166
            ],
            [
              16.4759515,
              48.2492648
            ],
            [
              16.4761159,
              48.2494257
            ],
            [
              16.4762224,
              48.2493774
            ]
          ]
        ]
      }
    },
    {
      "type": "Feature",
      "id": "way/371461942",
      "properties": {
        "building": "bridge",
        "osm_id": "way/371461942"
      },
      "geometry": {
        "type": "Polygon",
        "coordinates": [
          [
            [
              16.4760558,
              48.249087
            ],
            [
              16.4760285,
              48.2490609
            ],
            [
              16.4759604,
              48.2490922
            ],
            [
              16.4759579,
              48.2490898
            ],
            [
              16.4759418,
              48.2490972
            ],
            [
              16.4759382,
              48.2490989
            ],
            [
              16.4759675,
              48.2491277
            ],
            [
              16.4760558,
              48.249087
            ]
          ]
        ]
      }
    },
    {
      "type": "Feature",
      "id": "way/371462022",
      "properties": {
        "building": "bridge",
        "osm_id": "way/371462022"
      },
      "geometry": {
        "type": "Polygon",
        "coordinates": [
          [
            [
              16.4758679,
              48.2489046
            ],
            [
              16.4758429,
              48.2488803
            ],
            [
              16.4757768,
              48.2489105
            ],
            [
              16.4757714,
              48.2489085
            ],
            [
              16.4757527,
              48.2489171
            ],
            [
              16.4757808,
              48.2489444
            ],
            [
              16.4758679,
              48.2489046
            ]
          ]
        ]
      }
    },
    {
      "type": "Feature",
      "id": "way/371462181",
      "properties": {
        "building": "apartments",
        "osm_id": "way/371462181"
      },
      "geometry": {
        "type": "Polygon",
        "coordinates": [
          [
            [
              16.4762315,
              48.2491058
            ],
            [
              16.4760664,
              48.2489464
            ],
            [
              16.4759603,
              48.2489951
            ],
            [
              16.4760285,
              48.2490609
            ],
            [
              16.4760558,
              48.249087
            ],
            [
              16.4761256,
              48.2491544
            ],
            [
              16.4762315,
              48.2491058
            ]
          ]
        ]
      }
    },
    {
      "type": "Feature",
      "id": "way/420127106",
      "properties": {
        "building": "industrial",
        "osm_id": "way/420127106"
      },
      "geometry": {
        "type": "Polygon",
        "coordinates": [
          [
            [
              16.4715143,
              48.2500283
            ],
            [
              16.4715335,
              48.2500444
            ],
            [
              16.4714717,
              48.2500769
            ],
            [
              16.4714526,
              48.2500607
            ],
            [
              16.4715143,
              48.2500283
            ]
          ]
        ]
      }
    },
    {
      "type": "Feature",
      "id": "way/675246966",
      "properties": {
        "building": "yes",
        "osm_id": "way/675246966"
      },
      "geometry": {
        "type": "Polygon",
        "coordinates": [
          [
            [
              16.4685166,
              48.2526839
            ],
            [
              16.4683511,
              48.2524327
            ],
            [
              16.4681755,
              48.2524259
            ],
            [
              16.4680779,
              48.2524544
            ],
            [
              16.4682001,
              48.2526446
            ],
            [
              16.4682755,
              48.2527543
            ],
            [
              16.4685166,
              48.2526839
            ]
          ]
        ]
      }
    },
    {
      "type": "Feature",
      "id": "way/675246967",
      "properties": {
        "building": "yes",
        "osm_id": "way/675246967"
      },
      "geometry": {
        "type": "Polygon",
        "coordinates": [
          [
            [
              16.4675081,
              48.2525088
            ],
            [
              16.46757,
              48.2526028
            ],
            [
              16.4678779,
              48.2525129
            ],
            [
              16.4678159,
              48.2524189
            ],
            [
              16.4675081,
              48.2525088
            ]
          ]
        ]
      }
    },
    {
      "type": "Feature",
      "id": "way/675246969",
      "properties": {
        "building": "yes",
        "osm_id": "way/675246969"
      },
      "geometry": {
        "type": "Polygon",
        "coordinates": [
          [
            [
              16.4677066,
              48.2527874
            ],
            [
              16.4682001,
              48.2526446
            ],
            [
              16.4680779,
              48.2524544
            ],
            [
              16.4678779,
              48.2525129
            ],
            [
              16.46757,
              48.2526028
            ],
            [
              16.4677066,
              48.2527874
            ]
          ]
        ]
      }
    },
    {
      "type": "Feature",
      "id": "way/675246971",
      "properties": {
        "building": "roof",
        "osm_id": "way/675246971"
      },
      "geometry": {
        "type": "Polygon",
        "coordinates": [
          [
            [
              16.4717708,
              48.2513829
            ],
            [
              16.4717749,
              48.2513812
            ],
            [
              16.4718484,
              48.25135
            ],
            [
              16.4719058,
              48.2513258
            ],
            [
              16.4719241,
              48.251318
            ],
            [
              16.4719112,
              48.2513029
            ],
            [
              16.4718217,
              48.2512186
            ],
            [
              16.471841,
              48.2512114
            ],
            [
              16.4719539,
              48.2511587
            ],
            [
              16.47187,
              48.2510709
            ],
            [
              16.4717482,
              48.2511273
            ],
            [
              16.4715684,
              48.2512079
            ],
            [
              16.4715139,
              48.2512304
            ],
            [
              16.4716025,
              48.2513192
            ],
            [
              16.4716066,
              48.2513174
            ],
            [
              16.4716517,
              48.2512982
            ],
            [
              16.4717449,
              48.2513943
            ],
            [
              16.4717708,
              48.2513829
            ]
          ]
        ]
      }
    },
    {
      "type": "Feature",
      "id": "way/1101562284",
      "properties": {
        "building": "yes",
        "source": "geoimage.at",
        "osm_id": "way/1101562284"
      },
      "geometry": {
        "type": "Polygon",
        "coordinates": [
          [
            [
              16.4687703,
              48.2528839
            ],
            [
              16.4690256,
              48.2528142
            ],
            [
              16.4686901,
              48.2522698
            ],
            [
              16.4684348,
              48.2523396
            ],
            [
              16.4687703,
              48.2528839
            ]
          ]
        ]
      }
    },
    {
      "type": "Feature",
      "id": "way/1180952017",
      "properties": {
        "building": "shed",
        "osm_id": "way/1180952017"
      },
      "geometry": {
        "type": "Polygon",
        "coordinates": [
          [
            [
              16.4742256,
              48.2515739
            ],
            [
              16.4742442,
              48.2515662
            ],
            [
              16.4742894,
              48.2515473
            ],
            [
              16.4742557,
              48.2515114
            ],
            [
              16.4741919,
              48.251538
            ],
            [
              16.4742256,
              48.2515739
            ]
          ]
        ]
      }
    },
    {
      "type": "Feature",
      "id": "way/1180952018",
      "properties": {
        "building": "roof",
        "layer": "1",
        "osm_id": "way/1180952018"
      },
      "geometry": {
        "type": "Polygon",
        "coordinates": [
          [
            [
              16.4742442,
              48.2515662
            ],
            [
              16.4742493,
              48.2515715
            ],
            [
              16.4742943,
              48.2515524
            ],
            [
              16.4742894,
              48.2515473
            ],
            [
              16.4742442,
              48.2515662
            ]
          ]
        ]
      }
    },
    {
      "type": "Feature",
      "id": "way/1272560650",
      "properties": {
        "building": "shed",
        "building:levels": "1",
        "osm_id": "way/1272560650"
      },
      "geometry": {
        "type": "Polygon",
        "coordinates": [
          [
            [
              16.4695244,
              48.2518864
            ],
            [
              16.4694719,
              48.2518967
            ],
            [
              16.4694941,
              48.2519467
            ],
            [
              16.4695466,
              48.2519364
            ],
            [
              16.4695244,
              48.2518864
            ]
          ]
        ]
      }
    },
    {
      "type": "Feature",
      "id": "way/1272560651",
      "properties": {
        "building": "shed",
        "building:levels": "1",
        "building:material": "wood",
        "roof:material": "tar_paper",
        "roof:shape": "gabled",
        "osm_id": "way/1272560651"
      },
      "geometry": {
        "type": "Polygon",
        "coordinates": [
          [
            [
              16.4693332,
              48.2521431
            ],
            [
              16.4693661,
              48.2521355
            ],
            [
              16.4693531,
              48.2521107
            ],
            [
              16.4693202,
              48.2521183
            ],
            [
              16.4693332,
              48.2521431
            ]
          ]
        ]
      }
    },
    {
      "type": "Feature",
      "id": "way/1272560652",
      "properties": {
        "building": "shed",
        "building:colour": "blue",
        "building:levels": "1",
        "building:material": "wood",
        "roof:material": "metal",
        "osm_id": "way/1272560652"
      },
      "geometry": {
        "type": "Polygon",
        "coordinates": [
          [
            [
              16.4693202,
              48.2521183
            ],
            [
              16.4693531,
              48.2521107
            ],
            [
              16.4693212,
              48.2520497
            ],
            [
              16.4692966,
              48.2520555
            ],
            [
              16.4692883,
              48.2520574
            ],
            [
              16.4693202,
              48.2521183
            ]
          ]
        ]
      }
    },
    {
      "type": "Feature",
      "id": "way/1272566996",
      "properties": {
        "building": "yes",
        "osm_id": "way/1272566996"
      },
      "geometry": {
        "type": "Polygon",
        "coordinates": [
          [
            [
              16.4687429,
              48.2522686
            ],
            [
              16.4688156,
              48.2522493
            ],
            [
              16.4687951,
              48.2522151
            ],
            [
              16.4687475,
              48.2521356
            ],
            [
              16.4686749,
              48.2521549
            ],
            [
              16.4687429,
              48.2522686
            ]
          ]
        ]
      }
    },
    {
      "type": "Feature",
      "id": "way/1272621991",
      "properties": {
        "building": "roof",
        "building:levels": "1",
        "osm_id": "way/1272621991"
      },
      "geometry": {
        "type": "Polygon",
        "coordinates": [
          [
            [
              16.4719773,
              48.2542292
            ],
            [
              16.4720089,
              48.2542215
            ],
            [
              16.4719536,
              48.2541214
            ],
            [
              16.4719221,
              48.2541291
            ],
            [
              16.4719031,
              48.2540947
            ],
            [
              16.4719347,
              48.254087
            ],
            [
              16.4718978,
              48.2540201
            ],
            [
              16.4719751,
              48.2540012
            ],
            [
              16.4719886,
              48.2539979
            ],
            [
              16.4721599,
              48.2543083
            ],
            [
              16.4722103,
              48.2543995
            ],
            [
              16.4720878,
              48.2544294
            ],
            [
              16.4720375,
              48.2543382
            ],
            [
              16.4719773,
              48.2542292
            ]
          ]
        ]
      }
    },
    {
      "type": "Feature",
      "id": "way/1272622004",
      "properties": {
        "building": "roof",
        "osm_id": "way/1272622004"
      },
      "geometry": {
        "type": "Polygon",
        "coordinates": [
          [
            [
              16.4711571,
              48.252572
            ],
            [
              16.4711775,
              48.252567
            ],
            [
              16.4711894,
              48.2525641
            ],
            [
              16.4711965,
              48.2525769
            ],
            [
              16.4712239,
              48.2525702
            ],
            [
              16.4712172,
              48.2525581
            ],
            [
              16.4712323,
              48.2525544
            ],
            [
              16.4712519,
              48.2525496
            ],
            [
              16.4711871,
              48.2524321
            ],
            [
              16.4711695,
              48.2524001
            ],
            [
              16.4711491,
              48.2524051
            ],
            [
              16.4711354,
              48.2524084
            ],
            [
              16.471132,
              48.2524022
            ],
            [
              16.4711061,
              48.2524086
            ],
            [
              16.4711095,
              48.2524146
            ],
            [
              16.4710954,
              48.252418
            ],
            [
              16.471075,
              48.252423
            ],
            [
              16.4710935,
              48.2524566
            ],
            [
              16.4711163,
              48.2524979
            ],
            [
              16.4711436,
              48.2525475
            ],
            [
              16.4711571,
              48.252572
            ]
          ]
        ]
      }
    },
    {
      "type": "Feature",
      "id": "way/1315523092",
      "properties": {
        "addr:housenumber": "8",
        "addr:street": "Zwerchäckerweg",
        "building": "retail",
        "osm_id": "way/1315523092"
      },
      "geometry": {
        "type": "Polygon",
        "coordinates": [
          [
            [
              16.4697553,
              48.2507975
            ],
            [
              16.4696785,
              48.2507082
            ],
            [
              16.4696815,
              48.250673
            ],
            [
              16.4694118,
              48.2503565
            ],
            [
              16.4697568,
              48.250223
            ],
            [
              16.4697892,
              48.2502609
            ],
            [
              16.4701278,
              48.2506571
            ],
            [
              16.4697553,
              48.2507975
            ]
          ]
        ]
      }
    },
    {
      "type": "Feature",
      "id": "way/1372282739",
      "properties": {
        "building": "roof",
        "layer": "1",
        "osm_id": "way/1372282739"
      },
      "geometry": {
        "type": "Polygon",
        "coordinates": [
          [
            [
              16.4701589,
              48.2511413
            ],
            [
              16.4700908,
              48.2510645
            ],
            [
              16.4700862,
              48.2510593
            ],
            [
              16.4702099,
              48.2510107
            ],
            [
              16.4701288,
              48.2509192
            ],
            [
              16.4703187,
              48.2508446
            ],
            [
              16.4703947,
              48.2509303
            ],
            [
              16.4704301,
              48.2509164
            ],
            [
              16.4704403,
              48.2509279
            ],
            [
              16.4705079,
              48.2510042
            ],
            [
              16.4703299,
              48.2510741
            ],
            [
              16.4701589,
              48.2511413
            ]
          ]
        ]
      }
    },
    {
      "type": "Feature",
      "id": "way/1372282740",
      "properties": {
        "building": "retail",
        "osm_id": "way/1372282740"
      },
      "geometry": {
        "type": "Polygon",
        "coordinates": [
          [
            [
              16.4701288,
              48.2509192
            ],
            [
              16.4700412,
              48.2508159
            ],
            [
              16.4702288,
              48.2507386
            ],
            [
              16.4703187,
              48.2508446
            ],
            [
              16.4701288,
              48.2509192
            ]
          ]
        ]
      }
    },
    {
      "type": "Feature",
      "id": "way/1500666595",
      "properties": {
        "building": "carport",
        "generator:method": "photovoltaic",
        "generator:output:electricity": "yes",
        "generator:source": "solar",
        "generator:type": "solar_photovoltaic_panel",
        "layer": "1",
        "power": "generator",
        "osm_id": "way/1500666595"
      },
      "geometry": {
        "type": "Polygon",
        "coordinates": [
          [
            [
              16.4726423,
              48.2516002
            ],
            [
              16.4726414,
              48.251549
            ],
            [
              16.4727839,
              48.251549
            ],
            [
              16.4727852,
              48.2515943
            ],
            [
              16.4727857,
              48.2515989
            ],
            [
              16.4726423,
              48.2516002
            ]
          ]
        ]
      }
    }
  ]
}